
    {
        "ARG_OF_PERICENTER": 20.0235,
        "BSTAR": 0.00011426708,
        "CLASSIFICATION_TYPE": "U",
        "ECCENTRICITY": 0.00072966,
        "ELEMENT_SET_NO": 999,
        "EPHEMERIS_TYPE": 0,
        "EPOCH": "2026-05-03T19:30:13.349664",
        "INCLINATION": 51.6305,
        "MEAN_ANOMALY": 340.1038,
        "MEAN_MOTION": 15.4908112,
        "MEAN_MOTION_DDOT": 0,
        "MEAN_MOTION_DOT": 5.869e-05,
        "NORAD_CAT_ID": 68689,
        "OBJECT_ID": "2026-079A",
        "OBJECT_NAME": "CYGNUS NG-24",
        "RA_OF_ASC_NODE": 159.7493,
        "REV_AT_EPOCH": 357
    },
    {
        "ARG_OF_PERICENTER": 20.0235,
        "BSTAR": 0.00011426708,
        "CLASSIFICATION_TYPE": "U",
        "ECCENTRICITY": 0.00072966,
        "ELEMENT_SET_NO": 999,
        "EPHEMERIS_TYPE": 0,
        "EPOCH": "2026-05-03T19:30:13.349664",
        "INCLINATION": 51.6305,
        "MEAN_ANOMALY": 340.1038,
        "MEAN_MOTION": 15.4908112,
        "MEAN_MOTION_DDOT": 0,
        "MEAN_MOTION_DOT": 5.869e-05,
        "NORAD_CAT_ID": 68837,
        "OBJECT_ID": "2026-093A",
        "OBJECT_NAME": "PROGRESS-MS 34",
        "RA_OF_ASC_NODE": 159.7493,
        "REV_AT_EPOCH": 107
    }